{"spkid": "54239714", "covariance": {"elements": [{"name": "e", "sigma": 4.20927438942474e-07, "title": "eccentricity", "value": ".7151308193195232", "units": null, "label": "e"}, {"label": "q", "units": "au", "value": ".833362147138479", "title": "perihelion distance", "name": "q", "sigma": 1.2849051713052e-06}, {"sigma": 0.000137907170368741, "name": "tp", "title": "time of perihelion passage", "value": "2459669.304262781135", "units": "TDB", "label": "tp"}, {"sigma": 0.00019874236615471, "name": "om", "title": "longitude of the ascending node", "value": "192.3871502968409", "units": "deg", "label": "node"}, {"name": "w", "sigma": 0.000190114732586773, "units": "deg", "title": "argument of perihelion", "value": "113.562261575611", "label": "peri"}, {"name": "i", "sigma": 2.95071723917696e-05, "title": "inclination", "value": "13.82977339848799", "units": "deg", "label": "i"}], "data": [["1.771799088546701E-13", "-5.388434383883949E-13", "-5.448647291329669E-11", "-2.506253583912577E-11", "4.241331270892039E-12", "-1.077512289880461E-12"], ["-5.388434383883949E-13", "1.650981299246855E-12", "1.629407810541603E-10", "7.719280282357952E-11", "-1.78576606731299E-11", "3.875329057564702E-12"], ["-5.448647291329669E-11", "1.629407810541603E-10", "1.901838763911287E-8", "7.60933927521945E-9", "2.788487639360995E-10", "1.83150013340828E-10"], ["-2.506253583912577E-11", "7.719280282357952E-11", "7.60933927521945E-9", "3.949852810477273E-8", "-3.5685112076332E-8", "4.38955172143257E-9"], ["4.241331270892039E-12", "-1.78576606731299E-11", "2.788487639360995E-10", "-3.5685112076332E-8", "3.61436115465401E-8", "-4.335217658621548E-9"], ["-1.077512289880461E-12", "3.875329057564702E-12", "1.83150013340828E-10", "4.38955172143257E-9", "-4.335217658621548E-9", "8.706732225576099E-10"]], "labels": ["e", "q", "tp", "node", "peri", "i"], "epoch": "2459216.5"}, "elements": [{"label": "e", "title": "eccentricity", "value": ".7155031877088643", "units": null, "name": "e", "sigma": "4.2322E-7"}, {"title": "semi-major axis", "value": "2.922250532188893", "units": "au", "name": "a", "sigma": "4.1691E-7", "label": "a"}, {"label": "q", "name": "q", "sigma": "1.2908E-6", "title": "perihelion distance", "value": ".8313709611238146", "units": "au"}, {"name": "i", "sigma": "2.9502E-5", "title": "inclination; angle with respect to x-y ecliptic plane", "value": "13.85070626746836", "units": "deg", "label": "i"}, {"label": "node", "name": "om", "sigma": ".00019864", "units": "deg", "title": "longitude of the ascending node", "value": "192.311017717304"}, {"name": "w", "sigma": ".00018988", "units": "deg", "title": "argument of perihelion", "value": "113.6321174017661", "label": "peri"}, {"sigma": "7.5754E-5", "name": "ma", "units": "deg", "title": "mean anomaly", "value": "302.2243008725321", "label": "M"}, {"name": "tp", "sigma": ".0004435", "units": "TDB", "title": "time of perihelion passage", "value": "2461493.331171651155", "label": "tp"}, {"label": "period", "value": "1824.629098158281", "title": "sidereal orbital period", "units": "d", "name": "per", "sigma": ".00039047"}, {"label": "n", "title": "mean motion", "value": ".1973003720939076", "units": "deg/d", "name": "n", "sigma": "4.2222E-8"}, {"label": "Q", "units": "au", "title": "aphelion distance", "value": "5.013130103253971", "sigma": "7.1521E-7", "name": "ad"}], "epoch": "2461200.5"}